{"type": "FeatureCollection", "features": [ {"type": "Feature", "properties": {"norad_id": 66505, "name": "STARLINK-34766", "group": "last-30-days", "lat": -38.675712033601094, "lon": 76.83551302541828, "alt_km": 417.2542203575058, "timestamp": "2025-12-10T20:49:51.344439+00:00", "meta": {"OBJECT_NAME": "STARLINK-34766", "OBJECT_ID": "2025-263W", "EPOCH": "2025-12-10T14:00:03.000384", "MEAN_MOTION": 15.50635943, "ECCENTRICITY": 0.00016304, "INCLINATION": 43.0007, "RA_OF_ASC_NODE": 137.7024, "ARG_OF_PERICENTER": 270.0578, "MEAN_ANOMALY": 233.0232, "EPHEMERIS_TYPE": 0, "CLASSIFICATION_TYPE": "U", "NORAD_CAT_ID": 66505, "ELEMENT_SET_NO": 999, "REV_AT_EPOCH": 529, "BSTAR": -0.002511904, "MEAN_MOTION_DOT": -0.00145299, "MEAN_MOTION_DDOT": 0}, "tle": {"line1": "1 66505U 25263W   25344.58336806 -.00145299  00000+0 -25119-2 0  9998", "line2": "2 66505  43.0007 137.7024 0001630 270.0578 233.0232 15.50635943  5293"}}, "geometry": {"type": "Point", "coordinates": [76.83551302541828, -38.675712033601094]}}, {"type": "Feature", "properties": {"norad_id": 66506, "name": "STARLINK-34765", "group": "last-30-days", "lat": -37.98540024279167, "lon": 79.10712812783076, "alt_km": 417.3209647757694, "timestamp": "2025-12-10T20:49:51.344451+00:00", "meta": {"OBJECT_NAME": "STARLINK-34765", "OBJECT_ID": "2025-263X", "EPOCH": "2025-12-10T14:00:03.000384", "MEAN_MOTION": 15.50629049, "ECCENTRICITY": 0.0001541, "INCLINATION": 43.0007, "RA_OF_ASC_NODE": 137.698, "ARG_OF_PERICENTER": 266.9657, "MEAN_ANOMALY": 238.0355, "EPHEMERIS_TYPE": 0, "CLASSIFICATION_TYPE": "U", "NORAD_CAT_ID": 66506, "ELEMENT_SET_NO": 999, "REV_AT_EPOCH": 529, "BSTAR": -0.0023524682, "MEAN_MOTION_DOT": -0.0013622, "MEAN_MOTION_DDOT": 0}, "tle": {"line1": "1 66506U 25263X   25344.58336806 -.00136220  00000+0 -23525-2 0  9992", "line2": "2 66506  43.0007 137.6980 0001541 266.9657 238.0355 15.50629049  5298"}}, "geometry": {"type": "Point", "coordinates": [79.10712812783076, -37.98540024279167]}}, {"type": "Feature", "properties": {"norad_id": 66507, "name": "STARLINK-34767", "group": "last-30-days", "lat": -36.47914924595619, "lon": 83.51069441885093, "alt_km": 417.474314722258, "timestamp": "2025-12-10T20:49:51.344463+00:00", "meta": {"OBJECT_NAME": "STARLINK-34767", "OBJECT_ID": "2025-263Y", "EPOCH": "2025-12-10T14:00:03.000384", "MEAN_MOTION": 15.50686401, "ECCENTRICITY": 0.00013026, "INCLINATION": 43.0003, "RA_OF_ASC_NODE": 137.6864, "ARG_OF_PERICENTER": 270.9511, "MEAN_ANOMALY": 237.8679, "EPHEMERIS_TYPE": 0, "CLASSIFICATION_TYPE": "U", "NORAD_CAT_ID": 66507, "ELEMENT_SET_NO": 999, "REV_AT_EPOCH": 529, "BSTAR": -0.0050641033, "MEAN_MOTION_DOT": -0.00287866, "MEAN_MOTION_DDOT": 0}, "tle": {"line1": "1 66507U 25263Y   25344.58336806 -.00287866  00000+0 -50641-2 0  9995", "line2": "2 66507  43.0003 137.6864 0001302 270.9511 237.8679 15.50686401  5296"}}, "geometry": {"type": "Point", "coordinates": [83.51069441885093, -36.47914924595619]}}, {"type": "Feature", "properties": {"norad_id": 66508, "name": "STARLINK-35608", "group": "last-30-days", "lat": -33.92567859501814, "lon": 89.80553460349152, "alt_km": 417.19973421923896, "timestamp": "2025-12-10T20:49:51.344473+00:00", "meta": {"OBJECT_NAME": "STARLINK-35608", "OBJECT_ID": "2025-263Z", "EPOCH": "2025-12-10T14:00:03.000384", "MEAN_MOTION": 15.50626967, "ECCENTRICITY": 0.00015122, "INCLINATION": 43.0007, "RA_OF_ASC_NODE": 137.6737, "ARG_OF_PERICENTER": 268.3256, "MEAN_ANOMALY": 246.2609, "EPHEMERIS_TYPE": 0, "CLASSIFICATION_TYPE": "U", "NORAD_CAT_ID": 66508, "ELEMENT_SET_NO": 999, "REV_AT_EPOCH": 529, "BSTAR": -0.00224795, "MEAN_MOTION_DOT": -0.00130271, "MEAN_MOTION_DDOT": 0}, "tle": {"line1": "1 66508U 25263Z   25344.58336806 -.00130271  00000+0 -22479-2 0  9991", "line2": "2 66508  43.0007 137.6737 0001512 268.3256 246.2609 15.50626967  5298"}}, "geometry": {"type": "Point", "coordinates": [89.80553460349152, -33.92567859501814]}}, {"type": "Feature", "properties": {"norad_id": 66509, "name": "STARLINK-35598", "group": "last-30-days", "lat": -30.06309183489639, "lon": 97.58791518654459, "alt_km": 417.1180072629004, "timestamp": "2025-12-10T20:49:51.344482+00:00", "meta": {"OBJECT_NAME": "STARLINK-35598", "OBJECT_ID": "2025-263AA", "EPOCH": "2025-12-10T14:00:03.000384", "MEAN_MOTION": 15.50625572, "ECCENTRICITY": 0.00013933, "INCLINATION": 43.0006, "RA_OF_ASC_NODE": 137.6523, "ARG_OF_PERICENTER": 267.3005, "MEAN_ANOMALY": 254.9527, "EPHEMERIS_TYPE": 0, "CLASSIFICATION_TYPE": "U", "NORAD_CAT_ID": 66509, "ELEMENT_SET_NO": 999, "REV_AT_EPOCH": 529, "BSTAR": -0.0021178885, "MEAN_MOTION_DOT": -0.00122861, "MEAN_MOTION_DDOT": 0}, "tle": {"line1": "1 66509U 25263AA  25344.58336806 -.00122861  00000+0 -21179-2 0  9994", "line2": "2 66509  43.0006 137.6523 0001393 267.3005 254.9527 15.50625572  5295"}}, "geometry": {"type": "Point", "coordinates": [97.58791518654459, -30.06309183489639]}}, {"type": "Feature", "properties": {"norad_id": 66510, "name": "STARLINK-35600", "group": "last-30-days", "lat": -33.004463264668495, "lon": 91.81490864097971, "alt_km": 417.2084560495041, "timestamp": "2025-12-10T20:49:51.344493+00:00", "meta": {"OBJECT_NAME": "STARLINK-35600", "OBJECT_ID": "2025-263AB", "EPOCH": "2025-12-10T14:00:03.000384", "MEAN_MOTION": 15.50627351, "ECCENTRICITY": 0.00015016, "INCLINATION": 43.0006, "RA_OF_ASC_NODE": 137.6673, "ARG_OF_PERICENTER": 264.6623, "MEAN_ANOMALY": 251.8413, "EPHEMERIS_TYPE": 0, "CLASSIFICATION_TYPE": "U", "NORAD_CAT_ID": 66510, "ELEMENT_SET_NO": 999, "REV_AT_EPOCH": 529, "BSTAR": -0.0021911639, "MEAN_MOTION_DOT": -0.00127042, "MEAN_MOTION_DDOT": 0}, "tle": {"line1": "1 66510U 25263AB  25344.58336806 -.00127042  00000+0 -21912-2 0  9997", "line2": "2 66510  43.0006 137.6673 0001501 264.6623 251.8413 15.50627351  5297"}}, "geometry": {"type": "Point", "coordinates": [91.81490864097971, -33.004463264668495]}}, {"type": "Feature", "properties": {"norad_id": 66511, "name": "STARLINK-35444", "group": "last-30-days", "lat": -31.07129474710441, "lon": 95.70753555946722, "alt_km": 417.17760545225156, "timestamp": "2025-12-10T20:49:51.344503+00:00", "meta": {"OBJECT_NAME": "STARLINK-35444", "OBJECT_ID": "2025-263AC", "EPOCH": "2025-12-10T14:00:03.000384", "MEAN_MOTION": 15.50633897, "ECCENTRICITY": 0.00013349, "INCLINATION": 43.0006, "RA_OF_ASC_NODE": 137.6591, "ARG_OF_PERICENTER": 268.9511, "MEAN_ANOMALY": 251.3857, "EPHEMERIS_TYPE": 0, "CLASSIFICATION_TYPE": "U", "NORAD_CAT_ID": 66511, "ELEMENT_SET_NO": 999, "REV_AT_EPOCH": 529, "BSTAR": -0.0024329821, "MEAN_MOTION_DOT": -0.0014081, "MEAN_MOTION_DDOT": 0}, "tle": {"line1": "1 66511U 25263AC  25344.58336806 -.00140810  00000+0 -24330-2 0  9993", "line2": "2 66511  43.0006 137.6591 0001334 268.9511 251.3857 15.50633897  5293"}}, "geometry": {"type": "Point", "coordinates": [95.70753555946722, -31.07129474710441]}}, {"type": "Feature", "properties": {"norad_id": 66512, "name": "STARLINK-35366", "group": "last-30-days", "lat": -29.02406002938343, "lon": 99.44095995449304, "alt_km": 417.1030598322668, "timestamp": "2025-12-10T20:49:51.344512+00:00", "meta": {"OBJECT_NAME": "STARLINK-35366", "OBJECT_ID": "2025-263AD", "EPOCH": "2025-12-10T14:00:03.000384", "MEAN_MOTION": 15.50641883, "ECCENTRICITY": 0.00013738, "INCLINATION": 43.0006, "RA_OF_ASC_NODE": 137.649, "ARG_OF_PERICENTER": 265.6295, "MEAN_ANOMALY": 258.5376, "EPHEMERIS_TYPE": 0, "CLASSIFICATION_TYPE": "U", "NORAD_CAT_ID": 66512, "ELEMENT_SET_NO": 999, "REV_AT_EPOCH": 529, "BSTAR": -0.0026339259, "MEAN_MOTION_DOT": -0.00152235, "MEAN_MOTION_DDOT": 0}, "tle": {"line1": "1 66512U 25263AD  25344.58336806 -.00152235  00000+0 -26339-2 0  9999", "line2": "2 66512  43.0006 137.6490 0001373 265.6295 258.5376 15.50641883  5297"}}, "geometry": {"type": "Point", "coordinates": [99.44095995449304, -29.02406002938343]}}, {"type": "Feature", "properties": {"norad_id": 66513, "name": "STARLINK-35692", "group": "last-30-days", "lat": -32.094492542991006, "lon": 93.69728739571434, "alt_km": 416.9565995787407, "timestamp": "2025-12-10T20:49:51.344522+00:00", "meta": {"OBJECT_NAME": "STARLINK-35692", "OBJECT_ID": "2025-263AE", "EPOCH": "2025-12-10T14:00:03.000384", "MEAN_MOTION": 15.50584565, "ECCENTRICITY": 0.00015683, "INCLINATION": 43.0005, "RA_OF_ASC_NODE": 137.663, "ARG_OF_PERICENTER": 274.3342, "MEAN_ANOMALY": 244.0124, "EPHEMERIS_TYPE": 0, "CLASSIFICATION_TYPE": "U", "NORAD_CAT_ID": 66513, "ELEMENT_SET_NO": 999, "REV_AT_EPOCH": 529, "BSTAR": -2.4811049e-05, "MEAN_MOTION_DOT": -1.797e-05, "MEAN_MOTION_DDOT": 0}, "tle": {"line1": "1 66513U 25263AE  25344.58336806 -.00001797  00000+0 -24811-4 0  9991", "line2": "2 66513  43.0005 137.6630 0001568 274.3342 244.0124 15.50584565  5293"}}, "geometry": {"type": "Point", "coordinates": [93.69728739571434, -32.094492542991006]}}, {"type": "Feature", "properties": {"norad_id": 66514, "name": "SENTINEL-6B", "group": "last-30-days", "lat": 56.557185498107806, "lon": -56.00578912456935, "alt_km": 1333.4671593488947, "timestamp": "2025-12-10T20:49:51.344534+00:00", "meta": {"OBJECT_NAME": "SENTINEL-6B", "OBJECT_ID": "2025-264A", "EPOCH": "2025-12-08T23:22:28.384896", "MEAN_MOTION": 12.84031992, "ECCENTRICITY": 0.00210406, "INCLINATION": 66.0385, "RA_OF_ASC_NODE": 170.2707, "ARG_OF_PERICENTER": 268.23, "MEAN_ANOMALY": 91.6307, "EPHEMERIS_TYPE": 0, "CLASSIFICATION_TYPE": "U", "NORAD_CAT_ID": 66514, "ELEMENT_SET_NO": 999, "REV_AT_EPOCH": 280, "BSTAR": 0.000106025, "MEAN_MOTION_DOT": -3.6e-07, "MEAN_MOTION_DDOT": 0}, "tle": {"line1": "1 66514U 25264A   25342.97393964 -.00000036  00000+0  10602-3 0  9998", "line2": "2 66514  66.0385 170.2707 0021040 268.2300  91.6307 12.84031992  2809"}}, "geometry": {"type": "Point", "coordinates": [-56.00578912456935, 56.557185498107806]}}]}